{"type":"FeatureCollection","features":[{"type":"Feature","geometry":{"type":"MultiPolygon","coordinates":[[[[-105.15578189,39.932501691],[-105.153343089,39.9323370070001],[-105.152812751,39.9324022660001],[-105.152371397,39.9324500490001],[-105.151770582,39.932479158],[-105.151378089,39.9324419100001],[-105.150850894,39.932489799],[-105.150474848,39.932497536],[-105.15019714,39.9323692660001],[-105.150187981,39.932160245],[-105.150028463,39.93211325],[-105.149847373,39.932207711],[-105.149740031,39.9321581310001],[-105.148706006,39.9324984850001],[-105.147552016,39.9328112360001],[-105.146413014,39.9335692980001],[-105.146362366,39.9328773510001],[-105.147256128,39.931132824],[-105.148455511,39.930951065],[-105.149521532,39.931235814],[-105.150829237,39.9313335430001],[-105.151932595,39.931402808],[-105.153022757,39.9312217250001],[-105.153339887,39.9304127230001],[-105.151428661,39.930248154],[-105.151259137,39.9297964680001],[-105.152702291,39.9301708560001],[-105.154426407,39.9301285780001],[-105.156477071,39.93014398],[-105.157861253,39.9298890530001],[-105.1598307,39.9297753120001],[-105.160406937,39.929571121],[-105.161950772,39.9297371500001],[-105.163316328,39.929400699],[-105.164413087,39.9293276000001],[-105.165638679,39.9293767720001],[-105.166509164,39.9298341780001],[-105.16676186,39.9292416480001],[-105.167518878,39.9293171400001],[-105.167547819,39.9301510400001],[-105.169212531,39.9301243780001],[-105.169394214,39.9310511300001],[-105.170191722,39.93083834],[-105.171479565,39.930359202],[-105.172838906,39.9306882990001],[-105.174085129,39.9318747610001],[-105.175290821,39.9322763850001],[-105.176959103,39.9327994060001],[-105.177426343,39.9335440940001],[-105.178655756,39.9344292440001],[-105.179604687,39.9354605890001],[-105.180849805,39.936074977],[-105.181927388,39.936767623],[-105.182914948,39.9374563710001],[-105.183513936,39.9382310550001],[-105.183558518,39.9392135350001],[-105.182990043,39.940501849],[-105.180804257,39.9414783940001],[-105.180403645,39.9423828460001],[-105.180882919,39.9431184700001],[-105.182334732,39.9426656260001],[-105.183612005,39.9420167750001],[-105.185425015,39.9415554280001],[-105.186659581,39.9411872650001],[-105.188074052,39.940568715],[-105.18978764,39.940141413],[-105.191076332,39.939978577],[-105.191965022,39.93969285],[-105.19242939,39.9399777290001],[-105.19300839,39.9400273790001],[-105.192796355,39.940626222],[-105.192313416,39.9414360010001],[-105.191342133,39.9419137900001],[-105.190660296,39.9424292850001],[-105.189765684,39.9428927210001],[-105.188924922,39.9434046060001],[-105.190145463,39.943171647],[-105.191429231,39.9430989],[-105.193769638,39.9430341630001],[-105.198031364,39.9429175290001],[-105.198591158,39.9437224850001],[-105.199118164,39.9436666030001],[-105.199568501,39.9437091450001],[-105.199571207,39.9446404550001],[-105.199630318,39.945614984],[-105.199632143,39.946243076],[-105.199633906,39.9468495100001],[-105.19969157,39.947325897],[-105.199626644,39.9479444720001],[-105.201840986,39.9483610620001],[-105.20325183,39.9490126170001],[-105.204821454,39.949178036],[-105.205743247,39.9494654440001],[-105.205786553,39.949918961],[-105.207813196,39.949404961],[-105.208587616,39.9508813],[-105.209269988,39.9524447100001],[-105.210214926,39.953128845],[-105.211040759,39.9530018250001],[-105.211697309,39.9529008380001],[-105.212940845,39.9525123010001],[-105.213894617,39.9525305550001],[-105.2151965,39.952565683],[-105.215158421,39.951936543],[-105.215918265,39.9511214440001],[-105.216655492,39.950493082],[-105.217169767,39.949863942],[-105.217955343,39.948911175],[-105.2187015,39.948194153],[-105.219458802,39.947058789],[-105.221123319,39.946210707],[-105.222576215,39.9455431490001],[-105.221833277,39.9452396140001],[-105.220927415,39.9443902900001],[-105.220137845,39.9438634570001],[-105.219423834,39.943595396],[-105.218826201,39.943764118],[-105.218575818,39.944015461],[-105.218373773,39.9440270950001],[-105.21823193,39.943851522],[-105.218297024,39.9436223480001],[-105.217609294,39.94339847],[-105.216997505,39.9435106390001],[-105.216835171,39.94340327],[-105.216768175,39.942931888],[-105.216256617,39.9427464600001],[-105.216022257,39.9423962460001],[-105.2153963,39.9419662440001],[-105.21499675,39.941622045],[-105.214544833,39.9412656330001],[-105.213785851,39.940983181],[-105.213079219,39.941061603],[-105.212194054,39.9410928],[-105.211334025,39.940846982],[-105.210949027,39.940693169],[-105.210317805,39.9404553530001],[-105.20989202,39.940265224],[-105.209408588,39.9401743550001],[-105.208785047,39.9401114570001],[-105.20753519,39.9401000040001],[-105.20657316,39.9403724700001],[-105.206323849,39.9405577700001],[-105.20624496,39.9410126760001],[-105.205939866,39.9413597550001],[-105.205598008,39.941457391],[-105.205076234,39.9416107910001],[-105.204680514,39.9417639660001],[-105.204392923,39.9419446710001],[-105.204122803,39.9419451470001],[-105.203601023,39.9420985410001],[-105.20345741,39.9422512690001],[-105.203277822,39.9424179210001],[-105.202575096,39.9422805360001],[-105.201926559,39.942198499],[-105.201403878,39.942046932],[-105.200755143,39.941895582],[-105.199386696,39.941953389],[-105.198882351,39.9419126710001],[-105.198845654,39.94167709],[-105.19882584,39.9410533590001],[-105.198895905,39.9403740290001],[-105.198876292,39.9398196060001],[-105.198826345,39.939586262],[-105.199333176,39.9395131150001],[-105.200159337,39.9394683240001],[-105.200872695,39.9393803570001],[-105.201529503,39.9392202060001],[-105.202823772,39.938712002],[-105.203686666,39.938392467],[-105.204137532,39.938449496],[-105.204682768,39.938665369],[-105.205472569,39.939025362],[-105.205848714,39.9392126180001],[-105.206240866,39.939603095],[-105.207075274,39.9396956260001],[-105.207778033,39.939813085],[-105.208357299,39.9397802880001],[-105.209066328,39.9398527320001],[-105.209715742,39.939982544],[-105.210217646,39.940193118],[-105.210588368,39.940278005],[-105.21071409,39.939872522],[-105.211284961,39.9398750710001],[-105.211839618,39.9398262610001],[-105.212187893,39.9397194810001],[-105.21264468,39.9395595870001],[-105.212315392,39.9391256060001],[-105.2118515,39.938597208],[-105.211196241,39.938600294],[-105.210422241,39.9384956970001],[-105.210118465,39.93824342],[-105.209508965,39.938191348],[-105.208928431,39.9382325870001],[-105.208346724,39.9377878440001],[-105.207916509,39.9378293660001],[-105.207500645,39.937534569],[-105.207114974,39.9374682910001],[-105.206894936,39.9373780560001],[-105.206565017,39.9372880170001],[-105.206831565,39.937184829],[-105.207113899,39.9371118230001],[-105.207396252,39.937044858],[-105.207812323,39.937074323],[-105.208173326,39.937061591],[-105.208463819,39.937091278],[-105.208754513,39.937187425],[-105.209076641,39.937295598],[-105.209375132,39.9373736040001],[-105.209610538,39.9373550520001],[-105.209782952,39.9372701550001],[-105.209994995,39.937312064],[-105.210238213,39.937281414],[-105.210442057,39.9372085420001],[-105.210567507,39.9371660210001],[-105.210724407,39.9371415690001],[-105.210889248,39.937147311],[-105.211022675,39.9371470680001],[-105.211234646,39.937164807],[-105.211446561,39.937164421],[-105.211587976,39.9371705660001],[-105.211652223,39.936940502],[-105.211594345,39.9363710270001],[-105.211888018,39.9360822800001],[-105.212064897,39.9359177100001],[-105.212195534,39.9357868390001],[-105.21244565,39.9356860570001],[-105.212614795,39.935088609],[-105.213072345,39.9350786380001],[-105.213646275,39.934896614],[-105.214109721,39.934966859],[-105.214564454,39.9350462680001],[-105.215117505,39.934948977],[-105.215476071,39.935012122],[-105.216085993,39.9347802690001],[-105.216589587,39.934825002],[-105.217142712,39.9349218410001],[-105.217671053,39.935104546],[-105.218133182,39.9352099600001],[-105.218525786,39.935326537],[-105.219089939,39.9353831500001],[-105.219636247,39.9356570620001],[-105.220238743,39.935934064],[-105.220691018,39.9362055610001],[-105.220904884,39.9363591220001],[-105.22125507,39.9366190180001],[-105.221541317,39.9369046750001],[-105.221824131,39.9371132690001],[-105.222038445,39.9371917440001],[-105.22249224,39.9373670750001],[-105.222874957,39.937501352],[-105.223382725,39.9377485200001],[-105.223702099,39.9380140910001],[-105.223762278,39.9380383430001],[-105.224738841,39.938431855],[-105.226237744,39.9392271360001],[-105.227993922,39.9401981],[-105.228713665,39.940829288],[-105.228855183,39.94151735],[-105.229211174,39.9420476000001],[-105.229632968,39.9424980470001],[-105.230249515,39.9427139530001],[-105.23114879,39.9430873040001],[-105.232067628,39.943826664],[-105.232012789,39.94393796],[-105.232012086,39.9439393860001],[-105.231948637,39.944068155],[-105.233096088,39.944668269],[-105.233314001,39.9450488750001],[-105.233059643,39.945857016],[-105.232544602,39.9463404030001],[-105.232220919,39.9467064460001],[-105.23186855,39.947016714],[-105.231475712,39.9473372680001],[-105.231068244,39.947738777],[-105.230752309,39.9480770770001],[-105.230342785,39.9484640470001],[-105.230077875,39.948807362],[-105.2299761,39.9494110260001],[-105.230226898,39.9497962190001],[-105.230245643,39.9500411540001],[-105.230329113,39.9504264920001],[-105.230270135,39.9508292420001],[-105.229918612,39.9509252550001],[-105.229959138,39.950964373],[-105.231240096,39.951801276],[-105.231613223,39.952856583],[-105.230357038,39.95439064],[-105.230405476,39.955365757],[-105.231178867,39.956338927],[-105.229676517,39.9564819140001],[-105.229250978,39.9572351730001],[-105.229127683,39.9572404800001],[-105.228984688,39.957418858],[-105.228630441,39.9575067150001],[-105.228374573,39.95756406],[-105.228029342,39.9574017940001],[-105.227883535,39.9572940240001],[-105.227634591,39.9579879340001],[-105.22753187,39.958274257],[-105.227178037,39.9593097210001],[-105.226820889,39.9598675940001],[-105.226703536,39.9600508980001],[-105.226613564,39.960153188],[-105.225797057,39.961081472],[-105.225675997,39.961274691],[-105.224993596,39.9623638140001],[-105.223612241,39.96328027],[-105.222109603,39.9636563760001],[-105.221797442,39.963950579],[-105.220772791,39.964916267],[-105.218969591,39.9661876690001],[-105.217989586,39.966935612],[-105.219027477,39.968208104],[-105.218216944,39.9685527990001],[-105.218009834,39.9686408750001],[-105.216866022,39.968159127],[-105.215162492,39.9686993610001],[-105.214638011,39.9692000690001],[-105.214641414,39.969630554],[-105.214283412,39.9698626960001],[-105.212571937,39.970972444],[-105.211692702,39.9713499810001],[-105.210580036,39.9718584880001],[-105.209379545,39.972462594],[-105.209194876,39.972556766],[-105.207093718,39.973628213],[-105.206059016,39.97447233],[-105.206013236,39.9748681630001],[-105.205894051,39.9758986910001],[-105.204771103,39.976810377],[-105.204597822,39.978146403],[-105.203831988,39.9789895100001],[-105.203165415,39.9802621970001],[-105.202710712,39.9814327980001],[-105.201714513,39.981800521],[-105.201608732,39.9818395670001],[-105.200981403,39.982611445],[-105.200470288,39.9833151940001],[-105.200548615,39.9834520690001],[-105.200704429,39.983724345],[-105.20038517,39.9840290920001],[-105.200262025,39.9840377400001],[-105.199755201,39.984073332],[-105.199060799,39.9837004120001],[-105.198034947,39.9833809530001],[-105.197811328,39.983427513],[-105.197123829,39.9835706590001],[-105.19651651,39.9842781080001],[-105.195706091,39.9847588870001],[-105.194767806,39.984979669],[-105.194084129,39.9853663480001],[-105.193218167,39.985861432],[-105.19261176,39.985834283],[-105.192141335,39.9858132200001],[-105.191024272,39.986083583],[-105.189734592,39.9863562840001],[-105.188739117,39.986221992],[-105.188683142,39.9862144410001],[-105.188298056,39.986162489],[-105.187456616,39.986379916],[-105.187123917,39.985363745],[-105.186885559,39.9851145540001],[-105.186294082,39.9844961840001],[-105.185282501,39.98536635],[-105.183058892,39.98489528],[-105.180915261,39.9841656030001],[-105.180019944,39.983116701],[-105.179033833,39.9827926250001],[-105.178205523,39.983386173],[-105.177427577,39.9845455130001],[-105.176689669,39.9842938510001],[-105.176324063,39.9832073630001],[-105.175444046,39.982943225],[-105.175452684,39.981777251],[-105.176468739,39.980890652],[-105.177357577,39.9808329050001],[-105.17728347,39.9799237940001],[-105.175179603,39.9800872660001],[-105.17426527,39.9804511570001],[-105.173026592,39.9804953440001],[-105.172621029,39.9794729540001],[-105.17233175,39.978675707],[-105.171048859,39.978670687],[-105.170825909,39.978887285],[-105.169582899,39.9790032270001],[-105.168690187,39.9793660440001],[-105.167552847,39.979378647],[-105.166263924,39.979390993],[-105.165806066,39.978638936],[-105.165591404,39.978286337],[-105.163934369,39.978832281],[-105.163163198,39.9781259600001],[-105.162233573,39.97785982],[-105.161541151,39.9787718500001],[-105.161477925,39.978855127],[-105.160402985,39.9793955280001],[-105.159484327,39.9791857180001],[-105.159256077,39.9789433010001],[-105.158869548,39.9785327720001],[-105.157977255,39.978637973],[-105.157769607,39.9775546870001],[-105.157050393,39.9772263930001],[-105.156857161,39.9763929110001],[-105.158509312,39.9756316080001],[-105.159933062,39.975261194],[-105.160889181,39.9744530180001],[-105.162356546,39.9741532480001],[-105.163365998,39.9735868540001],[-105.164223723,39.973214012],[-105.165090572,39.972238561],[-105.166020096,39.97157315],[-105.167134614,39.9713531880001],[-105.167211604,39.9720405850001],[-105.167788581,39.972425216],[-105.168011545,39.9729976940001],[-105.168761374,39.9731362960001],[-105.16941469,39.973223698],[-105.16942822,39.973225508],[-105.169716539,39.973264079],[-105.170314437,39.9733440620001],[-105.172380436,39.9725436730001],[-105.173129218,39.9728465700001],[-105.172756327,39.973389871],[-105.173244731,39.973824902],[-105.174065917,39.973726088],[-105.174532956,39.9736368470001],[-105.174831411,39.973212817],[-105.175092101,39.9726021280001],[-105.175117867,39.972092909],[-105.177434431,39.9719727940001],[-105.178099764,39.9719160930001],[-105.179467678,39.9717995030001],[-105.18129603,39.971560272],[-105.182601845,39.9708438120001],[-105.183053795,39.970595835],[-105.182759371,39.969435101],[-105.183097264,39.9682963700001],[-105.184357258,39.967231648],[-105.184672393,39.9658915810001],[-105.185688868,39.9662324940001],[-105.186731103,39.9666928770001],[-105.187561572,39.9669391830001],[-105.189014714,39.966794409],[-105.189686633,39.966862226],[-105.190198216,39.9669138570001],[-105.190387102,39.9669121160001],[-105.190166691,39.9664314120001],[-105.188882937,39.9663162150001],[-105.188969999,39.9644818840001],[-105.186382672,39.964675657],[-105.186350425,39.9635088100001],[-105.185611896,39.9635415500001],[-105.185106157,39.9635639680001],[-105.184609429,39.9637522640001],[-105.18463429,39.9641735940001],[-105.184328332,39.9644543420001],[-105.183810755,39.964455163],[-105.183206042,39.964155815],[-105.182452717,39.9643108340001],[-105.182062245,39.9645467600001],[-105.181197437,39.9650692700001],[-105.18029168,39.965670721],[-105.178987326,39.966263199],[-105.177269811,39.9644395930001],[-105.17458498,39.9648693510001],[-105.171667374,39.9639339190001],[-105.17003373,39.9624352050001],[-105.169230233,39.960370056],[-105.169989657,39.9593847360001],[-105.166529937,39.958326841],[-105.164244871,39.957477752],[-105.160117449,39.9555000500001],[-105.158218563,39.9561810110001],[-105.155907534,39.957688408],[-105.15533694,39.9574787490001],[-105.155343174,39.957531852],[-105.154481412,39.9583117760001],[-105.15280199,39.9585980850001],[-105.152960436,39.9597461480001],[-105.153332586,39.9597672430001],[-105.153499255,39.9597766890001],[-105.15455333,39.9599367870001],[-105.155227894,39.9601664840001],[-105.156070943,39.960607005],[-105.156842112,39.9608160980001],[-105.157385581,39.96107556],[-105.157700496,39.9615962770001],[-105.156841563,39.9617720480001],[-105.155835271,39.9615991200001],[-105.154638454,39.9616431950001],[-105.154274749,39.9618382270001],[-105.153800462,39.962218122],[-105.153266401,39.962429209],[-105.152809155,39.9625803260001],[-105.152225554,39.962420406],[-105.151555572,39.9619625130001],[-105.151520782,39.962040099],[-105.150503871,39.96038492],[-105.148926998,39.9604755400001],[-105.148841849,39.959723458],[-105.146997725,39.9588463740001],[-105.145403975,39.9593435840001],[-105.144745373,39.958827334],[-105.143529236,39.959242745],[-105.14228634,39.960157483],[-105.142167933,39.9598761180001],[-105.141934278,39.9593208850001],[-105.141016302,39.9593892390001],[-105.14080827,39.959404729],[-105.140131222,39.95908617],[-105.13904358,39.9590794640001],[-105.137988409,39.9590101800001],[-105.136630601,39.958945699],[-105.135403856,39.959079493],[-105.134505936,39.9591787540001],[-105.132983248,39.958938963],[-105.131576598,39.9587850770001],[-105.13141287,39.958350684],[-105.131686044,39.9583226930001],[-105.132536395,39.9582355580001],[-105.131950377,39.957743968],[-105.131692757,39.9575278570001],[-105.13400898,39.9577657040001],[-105.135996001,39.95755509],[-105.137187236,39.9577737130001],[-105.137508236,39.95765485],[-105.138179512,39.957406281],[-105.139455564,39.9564955050001],[-105.139605171,39.9563741010001],[-105.14060004,39.955566769],[-105.142204981,39.9554568280001],[-105.143272037,39.9546918770001],[-105.144244415,39.954073325],[-105.145452516,39.9536028410001],[-105.146460974,39.953005558],[-105.146908418,39.9527691490001],[-105.147606681,39.952811696],[-105.148493964,39.95283306],[-105.148552993,39.9538708860001],[-105.149802725,39.953686599],[-105.150702638,39.954065873],[-105.151400666,39.954089223],[-105.152255963,39.9537910180001],[-105.152261508,39.9530914770001],[-105.152703794,39.952707713],[-105.153313225,39.9522884790001],[-105.153628759,39.951739692],[-105.15329797,39.9512645290001],[-105.152918462,39.9505715350001],[-105.151732027,39.9503122130001],[-105.150736532,39.950313986],[-105.150085783,39.950964221],[-105.147084977,39.9501693140001],[-105.146925763,39.949324926],[-105.146765843,39.947530257],[-105.144930051,39.9471413530001],[-105.145436121,39.94677404],[-105.14678236,39.94609179],[-105.148133975,39.9466784620001],[-105.14992545,39.947066632],[-105.151309166,39.947206441],[-105.153925913,39.9471376750001],[-105.156550538,39.947020228],[-105.158951906,39.947001449],[-105.161273728,39.946780604],[-105.163801268,39.9468090170001],[-105.163320951,39.9451452640001],[-105.162690269,39.9433380630001],[-105.161825265,39.9416613670001],[-105.16130148,39.9406830250001],[-105.161838231,39.940433995],[-105.162109384,39.9398803980001],[-105.161813271,39.9391327380001],[-105.161896297,39.9388255260001],[-105.162438986,39.93860103],[-105.162798182,39.9383640350001],[-105.16290612,39.9380924640001],[-105.163063397,39.9379432740001],[-105.163335564,39.9377130980001],[-105.163594155,39.937357886],[-105.164010468,39.937326179],[-105.164565491,39.9370293480001],[-105.164877128,39.9366869940001],[-105.163500441,39.935879777],[-105.162078992,39.936032976],[-105.160775214,39.9361126110001],[-105.159806092,39.93636481],[-105.159180992,39.9364123830001],[-105.157959806,39.9366848180001],[-105.157520953,39.9366861120001],[-105.157316362,39.9357139900001],[-105.15712302,39.9353624310001],[-105.156654909,39.934839964],[-105.15637004,39.9344119610001],[-105.155749399,39.9342679210001],[-105.155963575,39.9336388520001],[-105.156949087,39.9331291940001],[-105.15676327,39.9330051760001],[-105.15578189,39.932501691]]],[[[-105.133740427,39.956517853],[-105.13385102,39.9564630340001],[-105.133908573,39.9566036310001],[-105.133734341,39.956734571],[-105.133612935,39.9565266440001],[-105.133740427,39.956517853]]],[[[-105.165954873,39.960942807],[-105.165931256,39.960329658],[-105.16636659,39.9603403890001],[-105.166359597,39.9604993730001],[-105.166189983,39.9605336820001],[-105.166198379,39.9609538140001],[-105.165954873,39.960942807]]],[[[-105.160517717,39.961310069],[-105.160792285,39.9596913],[-105.161749428,39.9600205460001],[-105.162045544,39.961300882],[-105.161616328,39.961888505],[-105.162293914,39.9623304240001],[-105.162200359,39.963385902],[-105.161257049,39.9637398740001],[-105.160629332,39.9621782350001],[-105.160517717,39.961310069]]],[[[-105.165420003,39.964379197],[-105.167971692,39.9635550190001],[-105.16817685,39.9644290210001],[-105.166058778,39.9664527750001],[-105.16457566,39.966175365],[-105.165420003,39.964379197]]],[[[-105.155594826,39.9720122590001],[-105.155319573,39.971999818],[-105.155002969,39.9720079750001],[-105.154770661,39.972027892],[-105.154665482,39.971954011],[-105.154890438,39.971608573],[-105.15487627,39.971540266],[-105.154901162,39.9714358300001],[-105.154926029,39.9713197930001],[-105.15500637,39.9712887520001],[-105.155121987,39.9713001980001],[-105.15522757,39.9713193900001],[-105.155328162,39.971354056],[-105.155373552,39.9714235970001],[-105.155347487,39.9715263900001],[-105.155594826,39.9720122590001]]],[[[-105.15969976,39.971370817],[-105.16017893,39.9712477910001],[-105.160293986,39.9712247360001],[-105.160303017,39.971103677],[-105.160342942,39.970983752],[-105.160423226,39.9709295070001],[-105.160528711,39.970906159],[-105.160649389,39.9709330600001],[-105.160649625,39.971033596],[-105.160682114,39.9711469630001],[-105.160759887,39.971131379],[-105.160815309,39.970963764],[-105.160940704,39.970859187],[-105.161066327,39.9708512790001],[-105.161131896,39.970951724],[-105.161137367,39.971141188],[-105.161097488,39.971280447],[-105.161107931,39.971446703],[-105.161083138,39.9715898090001],[-105.161043661,39.971738515],[-105.161048435,39.9718020970001],[-105.161103974,39.9725418250001],[-105.160385171,39.972579156],[-105.159400415,39.972560704],[-105.158394799,39.972682057],[-105.15721823,39.9728010960001],[-105.156310647,39.972625238],[-105.156163937,39.9711608470001],[-105.156408004,39.9711517490001],[-105.156417924,39.970996848],[-105.156422721,39.9708963050001],[-105.156517996,39.9708033740001],[-105.156658714,39.970803184],[-105.156759448,39.9708997180001],[-105.156855174,39.97100399],[-105.156764826,39.9711586390001],[-105.156924287,39.9713144190001],[-105.157071994,39.971316905],[-105.157167605,39.9713709100001],[-105.157223216,39.971513906],[-105.157203092,39.971586786],[-105.157337352,39.971717944],[-105.157499957,39.9716566000001],[-105.157670867,39.971671835],[-105.157896988,39.97165606],[-105.158087938,39.9716442000001],[-105.158304026,39.9716361710001],[-105.158464847,39.9716359510001],[-105.158615646,39.9716473460001],[-105.158786475,39.971627778],[-105.158892032,39.9716353660001],[-105.158991748,39.9716761280001],[-105.159103745,39.9716045750001],[-105.159335892,39.9715135270001],[-105.159358911,39.9714143200001],[-105.159434161,39.9713562150001],[-105.159509547,39.971356111],[-105.159654124,39.9713887140001],[-105.15969976,39.971370817]]],[[[-105.152230973,39.973947212],[-105.15205143,39.9739497530001],[-105.151992083,39.973839937],[-105.152110056,39.973733677],[-105.152223431,39.9737752130001],[-105.152272302,39.9738521670001],[-105.152230973,39.973947212]]],[[[-105.154377367,39.974075767],[-105.154320633,39.974142294],[-105.154182736,39.9741551480001],[-105.154024205,39.97414744],[-105.15381213,39.9741303000001],[-105.153672181,39.9741463240001],[-105.153641383,39.9741827920001],[-105.153614827,39.974274689],[-105.153621109,39.9743221960001],[-105.153604786,39.9743871540001],[-105.153611156,39.9744742560001],[-105.153615426,39.974542355],[-105.153638199,39.9745993430001],[-105.153597306,39.9747245190001],[-105.153552176,39.9747958520001],[-105.153603876,39.9749003150001],[-105.153634198,39.974937288],[-105.153119309,39.974864462],[-105.153144199,39.974632505],[-105.153057606,39.9745774740001],[-105.153022942,39.9744941510001],[-105.153057251,39.9744183180001],[-105.15308143,39.9742174460001],[-105.153184803,39.974190784],[-105.153283167,39.9741262330001],[-105.153268052,39.9739746760001],[-105.153252904,39.973807961],[-105.153420239,39.973750898],[-105.15361715,39.9737051640001],[-105.15376018,39.973792132],[-105.153790191,39.973996721],[-105.154080736,39.973973599],[-105.154267925,39.9739847180001],[-105.154377367,39.974075767]]],[[[-105.154371006,39.977795703],[-105.154118862,39.97779045],[-105.154064628,39.977630655],[-105.154156531,39.97742922],[-105.154240831,39.977269241],[-105.15452766,39.9772765370001],[-105.154371006,39.977795703]]]]},"properties":{"poly_GISAcres":6079.90368546172,"attr_InitialLatitude":39.93435,"attr_InitialLongitude":-105.1362}}]}